[{"OBJECT_NAME":"YAOGAN-32 B","OBJECT_ID":"2018-077B","EPOCH":"2026-03-09T23:02:46.062240","MEAN_MOTION":14.63035466,"ECCENTRICITY":0.00062215,"INCLINATION":98.1598,"RA_OF_ASC_NODE":98.6057,"ARG_OF_PERICENTER":158.2393,"MEAN_ANOMALY":201.9074,"EPHEMERIS_TYPE":0,"CLASSIFICATION_TYPE":"U","NORAD_CAT_ID":43643,"ELEMENT_SET_NO":999,"REV_AT_EPOCH":39532,"BSTAR":0.00019194055,"MEAN_MOTION_DOT":9.37e-6,"MEAN_MOTION_DDOT":0},{"OBJECT_NAME":"CZ-6A DEB","OBJECT_ID":"2024-140BA","EPOCH":"2026-03-09T23:08:39.036480","MEAN_MOTION":14.53218311,"ECCENTRICITY":0.01097243,"INCLINATION":88.9836,"RA_OF_ASC_NODE":281.4208,"ARG_OF_PERICENTER":239.9544,"MEAN_ANOMALY":119.0746,"EPHEMERIS_TYPE":0,"CLASSIFICATION_TYPE":"U","NORAD_CAT_ID":60649,"ELEMENT_SET_NO":999,"REV_AT_EPOCH":8398,"BSTAR":0.00014065975,"MEAN_MOTION_DOT":6.48e-6,"MEAN_MOTION_DDOT":0}]
